CCSDS_OMM_VERS = 2.0
CREATION_DATE  = 
ORIGINATOR     = 

OBJECT_NAME    = ORBVIEW 2 (SEASTAR)
OBJECT_ID      = 1997-037A
CENTER_NAME    = EARTH
REF_FRAME      = TEME
TIME_SYSTEM    = UTC
MEAN_ELEMENT_THEORY = SGP/SGP4

EPOCH          = 2025-11-26T22:51:41.736960
MEAN_MOTION    = 14.35399053
ECCENTRICITY   = .0002431
INCLINATION    = 98.8452
RA_OF_ASC_NODE = 127.6304
ARG_OF_PERICENTER = 27.9116
MEAN_ANOMALY   = 332.2199

EPHEMERIS_TYPE = 0
CLASSIFICATION_TYPE = U
NORAD_CAT_ID   = 24883
ELEMENT_SET_NO = 999
REV_AT_EPOCH   = 49373
BSTAR          = .14275E-3
MEAN_MOTION_DOT = .363E-5
MEAN_MOTION_DDOT = 0

CCSDS_OMM_VERS = 2.0
CREATION_DATE  = 
ORIGINATOR     = 

OBJECT_NAME    = SL-16 R/B
OBJECT_ID      = 1998-043G
CENTER_NAME    = EARTH
REF_FRAME      = TEME
TIME_SYSTEM    = UTC
MEAN_ELEMENT_THEORY = SGP/SGP4

EPOCH          = 2025-11-26T20:54:13.521312
MEAN_MOTION    = 14.26019673
ECCENTRICITY   = .0009098
INCLINATION    = 98.8100
RA_OF_ASC_NODE = 278.6023
ARG_OF_PERICENTER = 317.9143
MEAN_ANOMALY   = 42.1337

EPHEMERIS_TYPE = 0
CLASSIFICATION_TYPE = U
NORAD_CAT_ID   = 25400
ELEMENT_SET_NO = 999
REV_AT_EPOCH   = 42433
BSTAR          = .65536E-4
MEAN_MOTION_DOT = .111E-5
MEAN_MOTION_DDOT = 0

CCSDS_OMM_VERS = 2.0
CREATION_DATE  = 
ORIGINATOR     = 

OBJECT_NAME    = SL-16 R/B
OBJECT_ID      = 1998-045B
CENTER_NAME    = EARTH
REF_FRAME      = TEME
TIME_SYSTEM    = UTC
MEAN_ELEMENT_THEORY = SGP/SGP4

EPOCH          = 2025-11-26T12:27:14.043456
MEAN_MOTION    = 14.16171256
ECCENTRICITY   = .0007926
INCLINATION    = 71.0126
RA_OF_ASC_NODE = 38.5386
ARG_OF_PERICENTER = 199.7400
MEAN_ANOMALY   = 160.3418

EPHEMERIS_TYPE = 0
CLASSIFICATION_TYPE = U
NORAD_CAT_ID   = 25407
ELEMENT_SET_NO = 999
REV_AT_EPOCH   = 41249
BSTAR          = .17988818E-3
MEAN_MOTION_DOT = .308E-5
MEAN_MOTION_DDOT = 0

CCSDS_OMM_VERS = 2.0
CREATION_DATE  = 
ORIGINATOR     = 

OBJECT_NAME    = ISS (ZARYA)
OBJECT_ID      = 1998-067A
CENTER_NAME    = EARTH
REF_FRAME      = TEME
TIME_SYSTEM    = UTC
MEAN_ELEMENT_THEORY = SGP/SGP4

EPOCH          = 2025-11-26T22:21:35.365248
MEAN_MOTION    = 15.49107800
ECCENTRICITY   = .0003812
INCLINATION    = 51.6311
RA_OF_ASC_NODE = 220.7305
ARG_OF_PERICENTER = 172.0243
MEAN_ANOMALY   = 188.0807

EPHEMERIS_TYPE = 0
CLASSIFICATION_TYPE = U
NORAD_CAT_ID   = 25544
ELEMENT_SET_NO = 999
REV_AT_EPOCH   = 54040
BSTAR          = .19922E-3
MEAN_MOTION_DOT = .10582E-3
MEAN_MOTION_DDOT = 0

CCSDS_OMM_VERS = 2.0
CREATION_DATE  = 
ORIGINATOR     = 

OBJECT_NAME    = CZ-4B R/B
OBJECT_ID      = 1999-025C
CENTER_NAME    = EARTH
REF_FRAME      = TEME
TIME_SYSTEM    = UTC
MEAN_ELEMENT_THEORY = SGP/SGP4

EPOCH          = 2025-11-27T01:56:26.354976
MEAN_MOTION    = 14.18237810
ECCENTRICITY   = .0036035
INCLINATION    = 98.6791
RA_OF_ASC_NODE = 12.7094
ARG_OF_PERICENTER = 280.2251
MEAN_ANOMALY   = 108.6960

EPHEMERIS_TYPE = 0
CLASSIFICATION_TYPE = U
NORAD_CAT_ID   = 25732
ELEMENT_SET_NO = 999
REV_AT_EPOCH   = 37362
BSTAR          = .71333E-4
MEAN_MOTION_DOT = .104E-5
MEAN_MOTION_DDOT = 0

CCSDS_OMM_VERS = 2.0
CREATION_DATE  = 
ORIGINATOR     = 

OBJECT_NAME    = OKEAN-O
OBJECT_ID      = 1999-039A
CENTER_NAME    = EARTH
REF_FRAME      = TEME
TIME_SYSTEM    = UTC
MEAN_ELEMENT_THEORY = SGP/SGP4

EPOCH          = 2025-11-27T04:09:46.125792
MEAN_MOTION    = 14.80120978
ECCENTRICITY   = .0001006
INCLINATION    = 97.9625
RA_OF_ASC_NODE = 27.0084
ARG_OF_PERICENTER = 71.5301
MEAN_ANOMALY   = 288.6020

EPHEMERIS_TYPE = 0
CLASSIFICATION_TYPE = U
NORAD_CAT_ID   = 25860
ELEMENT_SET_NO = 999
REV_AT_EPOCH   = 41922
BSTAR          = .12514E-3
MEAN_MOTION_DOT = .897E-5
MEAN_MOTION_DDOT = 0

CCSDS_OMM_VERS = 2.0
CREATION_DATE  = 
ORIGINATOR     = 

OBJECT_NAME    = SL-16 R/B
OBJECT_ID      = 1999-039B
CENTER_NAME    = EARTH
REF_FRAME      = TEME
TIME_SYSTEM    = UTC
MEAN_ELEMENT_THEORY = SGP/SGP4

EPOCH          = 2025-11-27T02:47:00.629664
MEAN_MOTION    = 14.81552139
ECCENTRICITY   = .0013835
INCLINATION    = 98.0148
RA_OF_ASC_NODE = 25.2647
ARG_OF_PERICENTER = 226.7149
MEAN_ANOMALY   = 133.2910

EPHEMERIS_TYPE = 0
CLASSIFICATION_TYPE = U
NORAD_CAT_ID   = 25861
ELEMENT_SET_NO = 999
REV_AT_EPOCH   = 42167
BSTAR          = .10317E-3
MEAN_MOTION_DOT = .757E-5
MEAN_MOTION_DDOT = 0

CCSDS_OMM_VERS = 2.0
CREATION_DATE  = 
ORIGINATOR     = 

OBJECT_NAME    = DELTA 2 R/B
OBJECT_ID      = 1999-041E
CENTER_NAME    = EARTH
REF_FRAME      = TEME
TIME_SYSTEM    = UTC
MEAN_ELEMENT_THEORY = SGP/SGP4

EPOCH          = 2025-11-27T01:31:54.523200
MEAN_MOTION    = 14.11340521
ECCENTRICITY   = .0504899
INCLINATION    = 51.7623
RA_OF_ASC_NODE = 351.0201
ARG_OF_PERICENTER = 45.5726
MEAN_ANOMALY   = 318.5390

EPHEMERIS_TYPE = 0
CLASSIFICATION_TYPE = U
NORAD_CAT_ID   = 25876
ELEMENT_SET_NO = 999
REV_AT_EPOCH   = 34853
BSTAR          = .19551E-3
MEAN_MOTION_DOT = .966E-5
MEAN_MOTION_DDOT = 0

CCSDS_OMM_VERS = 2.0
CREATION_DATE  = 
ORIGINATOR     = 

OBJECT_NAME    = HELIOS 1B
OBJECT_ID      = 1999-064A
CENTER_NAME    = EARTH
REF_FRAME      = TEME
TIME_SYSTEM    = UTC
MEAN_ELEMENT_THEORY = SGP/SGP4

EPOCH          = 2025-11-26T17:21:55.467360
MEAN_MOTION    = 14.87182061
ECCENTRICITY   = .00023475
INCLINATION    = 98.1749
RA_OF_ASC_NODE = 224.9151
ARG_OF_PERICENTER = 63.9137
MEAN_ANOMALY   = 296.2319

EPHEMERIS_TYPE = 0
CLASSIFICATION_TYPE = U
NORAD_CAT_ID   = 25977
ELEMENT_SET_NO = 999
REV_AT_EPOCH   = 66995
BSTAR          = .303973E-3
MEAN_MOTION_DOT = .2676E-4
MEAN_MOTION_DDOT = 0

CCSDS_OMM_VERS = 2.0
CREATION_DATE  = 
ORIGINATOR     = 

OBJECT_NAME    = TERRA
OBJECT_ID      = 1999-068A
CENTER_NAME    = EARTH
REF_FRAME      = TEME
TIME_SYSTEM    = UTC
MEAN_ELEMENT_THEORY = SGP/SGP4

EPOCH          = 2025-11-26T23:49:43.080672
MEAN_MOTION    = 14.60925308
ECCENTRICITY   = .00031965
INCLINATION    = 97.9770
RA_OF_ASC_NODE = 23.2531
ARG_OF_PERICENTER = 129.8267
MEAN_ANOMALY   = 352.1608

EPHEMERIS_TYPE = 0
CLASSIFICATION_TYPE = U
NORAD_CAT_ID   = 25994
ELEMENT_SET_NO = 999
REV_AT_EPOCH   = 38008
BSTAR          = .13691704E-3
MEAN_MOTION_DOT = .626E-5
MEAN_MOTION_DDOT = 0

CCSDS_OMM_VERS = 2.0
CREATION_DATE  = 
ORIGINATOR     = 

OBJECT_NAME    = SL-16 R/B
OBJECT_ID      = 2000-006B
CENTER_NAME    = EARTH
REF_FRAME      = TEME
TIME_SYSTEM    = UTC
MEAN_ELEMENT_THEORY = SGP/SGP4

EPOCH          = 2025-11-27T00:03:05.217408
MEAN_MOTION    = 14.15802937
ECCENTRICITY   = .0017559
INCLINATION    = 71.0021
RA_OF_ASC_NODE = 313.7483
ARG_OF_PERICENTER = 330.7609
MEAN_ANOMALY   = 29.2530

EPHEMERIS_TYPE = 0
CLASSIFICATION_TYPE = U
NORAD_CAT_ID   = 26070
ELEMENT_SET_NO = 999
REV_AT_EPOCH   = 33402
BSTAR          = .16293E-3
MEAN_MOTION_DOT = .273E-5
MEAN_MOTION_DDOT = 0

CCSDS_OMM_VERS = 2.0
CREATION_DATE  = 
ORIGINATOR     = 

OBJECT_NAME    = TITAN 4B R/B
OBJECT_ID      = 2000-047B
CENTER_NAME    = EARTH
REF_FRAME      = TEME
TIME_SYSTEM    = UTC
MEAN_ELEMENT_THEORY = SGP/SGP4

EPOCH          = 2025-11-27T03:55:15.413376
MEAN_MOTION    = 15.08611265
ECCENTRICITY   = .0040184
INCLINATION    = 67.9903
RA_OF_ASC_NODE = 328.5966
ARG_OF_PERICENTER = 163.0170
MEAN_ANOMALY   = 197.2335

EPHEMERIS_TYPE = 0
CLASSIFICATION_TYPE = U
NORAD_CAT_ID   = 26474
ELEMENT_SET_NO = 999
REV_AT_EPOCH   = 37744
BSTAR          = .26211E-3
MEAN_MOTION_DOT = .4052E-4
MEAN_MOTION_DDOT = 0

