ORBVIEW 2 (SEASTAR)     
1 24883U 97037A   25330.95256640  .00000363  00000+0  14275-3 0  9994
2 24883  98.8452 127.6304 0002431  27.9116 332.2199 14.35399053493739
SL-16 R/B               
1 25400U 98043G   25330.87098983  .00000111  00000+0  65536-4 0  9991
2 25400  98.8100 278.6023 0009098 317.9143  42.1337 14.26019673424336
SL-16 R/B               
1 25407U 98045B   25330.51891254  .00000308  00000+0  17989-3 0  9999
2 25407  71.0126  38.5386 0007926 199.7400 160.3418 14.16171256412491
ISS (ZARYA)             
1 25544U 98067A   25330.93165932  .00010582  00000+0  19922-3 0  9992
2 25544  51.6311 220.7305 0003812 172.0243 188.0807 15.49107800540401
CZ-4B R/B               
1 25732U 99025C   25331.08086059  .00000104  00000+0  71333-4 0  9999
2 25732  98.6791  12.7094 0036035 280.2251 108.6960 14.18237810373627
OKEAN-O                 
1 25860U 99039A   25331.17345053  .00000897  00000+0  12514-3 0  9992
2 25860  97.9625  27.0084 0001006  71.5301 288.6020 14.80120978419220
SL-16 R/B               
1 25861U 99039B   25331.11597951  .00000757  00000+0  10317-3 0  9997
2 25861  98.0148  25.2647 0013835 226.7149 133.2910 14.81552139421679
DELTA 2 R/B             
1 25876U 99041E   25331.06382550  .00000966  00000+0  19551-3 0  9998
2 25876  51.7623 351.0201 0504899  45.5726 318.5390 14.11340521348534
HELIOS 1B               
1 25977U 99064A   25330.72355865  .00002676  00000+0  30397-3 0  9997
2 25977  98.1749 224.9151 0002347  63.9137 296.2319 14.87182061669954
TERRA                   
1 25994U 99068A   25330.99285973  .00000626  00000+0  13692-3 0  9993
2 25994  97.9770  23.2531 0003196 129.8267 352.1608 14.60925308380082
SL-16 R/B               
1 26070U 00006B   25331.00214372  .00000273  00000+0  16293-3 0  9999
2 26070  71.0021 313.7483 0017559 330.7609  29.2530 14.15802937334025
TITAN 4B R/B            
1 26474U 00047B   25331.16337284  .00004052  00000+0  26211-3 0  9997
2 26474  67.9903 328.5966 0040184 163.0170 197.2335 15.08611265377443
